[{"OBJECT_NAME":"STARLINK-4714","OBJECT_ID":"2022-107E","EPOCH":"2026-03-09T17:05:53.030976","MEAN_MOTION":15.08835774,"ECCENTRICITY":0.00012724,"INCLINATION":53.2168,"RA_OF_ASC_NODE":244.2748,"ARG_OF_PERICENTER":102.781,"MEAN_ANOMALY":257.3324,"EPHEMERIS_TYPE":0,"CLASSIFICATION_TYPE":"U","NORAD_CAT_ID":53704,"ELEMENT_SET_NO":999,"REV_AT_EPOCH":19469,"BSTAR":-3.701633e-6,"MEAN_MOTION_DOT":-3.47e-6,"MEAN_MOTION_DDOT":0},{"OBJECT_NAME":"KUIPER-00148","OBJECT_ID":"2025-217H","EPOCH":"2026-03-09T06:36:19.446048","MEAN_MOTION":15.09536529,"ECCENTRICITY":0.00081087,"INCLINATION":51.8794,"RA_OF_ASC_NODE":26.5769,"ARG_OF_PERICENTER":351.8096,"MEAN_ANOMALY":8.2745,"EPHEMERIS_TYPE":0,"CLASSIFICATION_TYPE":"U","NORAD_CAT_ID":65769,"ELEMENT_SET_NO":999,"REV_AT_EPOCH":2507,"BSTAR":0.00098730243,"MEAN_MOTION_DOT":0.00015783,"MEAN_MOTION_DDOT":0}]
